{"type":"FeatureCollection","features":[{"type":"Feature","geometry":{"type":"Point","coordinates":[35.21838,31.73975]},"properties":{"semel":127,"name":"רמת רחל","winner":"yesh_atid","winnerShare":0.4134,"turnout":0.7883,"valid":283}},{"type":"Feature","geometry":{"type":"Point","coordinates":[35.3443,32.62105]},"properties":{"semel":475,"name":"דחי","winner":"hadash","winnerShare":0.341,"turnout":0.3993,"valid":217}},{"type":"Feature","geometry":{"type":"Point","coordinates":[35.35287,32.72257]},"properties":{"semel":532,"name":"עין מאהל","winner":"hadash","winnerShare":0.3501,"turnout":0.5206,"valid":5001}},{"type":"Feature","geometry":{"type":"Point","coordinates":[35.16171,31.78208]},"properties":{"semel":710,"name":"בית זית","winner":"yesh_atid","winnerShare":0.2942,"turnout":0.7211,"valid":809}},{"type":"Feature","geometry":{"type":"Point","coordinates":[35.11518,31.64986]},"properties":{"semel":3488,"name":"כפר עציון","winner":"habait","winnerShare":0.3196,"turnout":0.7801,"valid":438}},{"type":"Feature","geometry":{"type":"Point","coordinates":[35.44452,31.98883]},"properties":{"semel":3555,"name":"נתיב הגדוד","winner":"labor","winnerShare":0.2941,"turnout":0.6089,"valid":136}},{"type":"Feature","geometry":{"type":"Point","coordinates":[35.46098,31.78991]},"properties":{"semel":3556,"name":"אלמוג","winner":"yesh_atid","winnerShare":0.3455,"turnout":0.5692,"valid":110}},{"type":"Feature","geometry":{"type":"Point","coordinates":[35.16023,32.21849]},"properties":{"semel":3557,"name":"קדומים","winner":"rz","winnerShare":0.7267,"turnout":0.7602,"valid":2060}},{"type":"Feature","geometry":{"type":"Point","coordinates":[35.44209,32.01683]},"properties":{"semel":3558,"name":"תומר","winner":"yesh_atid","winnerShare":0.2746,"turnout":0.7756,"valid":193}},{"type":"Feature","geometry":{"type":"Point","coordinates":[35.03603,32.10826]},"properties":{"semel":3560,"name":"אלקנה","winner":"rz","winnerShare":0.5229,"turnout":0.8062,"valid":2251}},{"type":"Feature","geometry":{"type":"Point","coordinates":[35.14243,31.64023]},"properties":{"semel":3561,"name":"מגדל עוז","winner":"rz","winnerShare":0.4431,"turnout":0.6278,"valid":167}},{"type":"Feature","geometry":{"type":"Point","coordinates":[35.22934,31.65228]},"properties":{"semel":3563,"name":"תקוע","winner":"rz","winnerShare":0.4472,"turnout":0.7224,"valid":1675}},{"type":"Feature","geometry":{"type":"Point","coordinates":[35.34849,31.95911]},"properties":{"semel":3564,"name":"כוכב השחר","winner":"rz","winnerShare":0.8599,"turnout":0.7894,"valid":1071}},{"type":"Feature","geometry":{"type":"Point","coordinates":[35.34093,31.93361]},"properties":{"semel":3565,"name":"רימונים","winner":"likud","winnerShare":0.4278,"turnout":0.7031,"valid":360}},{"type":"Feature","geometry":{"type":"Point","coordinates":[35.47495,32.06383]},"properties":{"semel":3566,"name":"יפית","winner":"likud","winnerShare":0.3762,"turnout":0.5739,"valid":101}},{"type":"Feature","geometry":{"type":"Point","coordinates":[35.05,32.24241]},"properties":{"semel":3567,"name":"סלעית","winner":"yesh_atid","winnerShare":0.5191,"turnout":0.7998,"valid":655}},{"type":"Feature","geometry":{"type":"Point","coordinates":[35.13602,32.46949]},"properties":{"semel":3568,"name":"ריחן","winner":"yesh_atid","winnerShare":0.2717,"turnout":0.7686,"valid":184}},{"type":"Feature","geometry":{"type":"Point","coordinates":[35.17557,32.42016]},"properties":{"semel":3569,"name":"מבוא דותן","winner":"rz","winnerShare":0.5496,"turnout":0.7311,"valid":242}},{"type":"Feature","geometry":{"type":"Point","coordinates":[35.18988,32.10508]},"properties":{"semel":3570,"name":"אריאל","winner":"likud","winnerShare":0.4057,"turnout":0.6181,"valid":9420}},{"type":"Feature","geometry":{"type":"Point","coordinates":[35.18456,32.26355]},"properties":{"semel":3571,"name":"שבי שומרון","winner":"rz","winnerShare":0.7361,"turnout":0.7942,"valid":466}},{"type":"Feature","geometry":{"type":"Point","coordinates":[35.25089,32.11838]},"properties":{"semel":3572,"name":"כפר תפוח","winner":"rz","winnerShare":0.781,"turnout":0.7259,"valid":525}},{"type":"Feature","geometry":{"type":"Point","coordinates":[35.12569,32.00576]},"properties":{"semel":3573,"name":"נוה צוף","winner":"rz","winnerShare":0.7111,"turnout":0.7689,"valid":630}},{"type":"Feature","geometry":{"type":"Point","coordinates":[35.22307,31.94192]},"properties":{"semel":3574,"name":"בית אל","winner":"rz","winnerShare":0.8325,"turnout":0.7719,"valid":2698}},{"type":"Feature","geometry":{"type":"Point","coordinates":[35.12653,31.87816]},"properties":{"semel":3575,"name":"בית חורון","winner":"rz","winnerShare":0.4575,"turnout":0.8104,"valid":717}},{"type":"Feature","geometry":{"type":"Point","coordinates":[35.39407,31.81589]},"properties":{"semel":3576,"name":"מצפה יריחו","winner":"rz","winnerShare":0.7219,"turnout":0.7698,"valid":1075}},{"type":"Feature","geometry":{"type":"Point","coordinates":[35.53627,32.34402]},"properties":{"semel":3578,"name":"שדמות מחולה","winner":"rz","winnerShare":0.7176,"turnout":0.778,"valid":340}},{"type":"Feature","geometry":{"type":"Point","coordinates":[35.33488,32.23269]},"properties":{"semel":3579,"name":"אלון מורה","winner":"rz","winnerShare":0.8675,"turnout":0.7415,"valid":717}},{"type":"Feature","geometry":{"type":"Point","coordinates":[35.52198,32.17242]},"properties":{"semel":3598,"name":"ארגמן","winner":"likud","winnerShare":0.3784,"turnout":0.6281,"valid":74}},{"type":"Feature","geometry":{"type":"Point","coordinates":[35.51502,32.36516]},"properties":{"semel":3599,"name":"מחולה","winner":"rz","winnerShare":0.5192,"turnout":0.7328,"valid":287}},{"type":"Feature","geometry":{"type":"Point","coordinates":[35.46706,31.75095]},"properties":{"semel":3601,"name":"קליה","winner":"yesh_atid","winnerShare":0.3291,"turnout":0.6991,"valid":237}},{"type":"Feature","geometry":{"type":"Point","coordinates":[35.12353,31.66781]},"properties":{"semel":3602,"name":"ראש צורים","winner":"rz","winnerShare":0.4896,"turnout":0.8063,"valid":433}},{"type":"Feature","geometry":{"type":"Point","coordinates":[35.17222,31.72157]},"properties":{"semel":3603,"name":"הר גילה","winner":"likud","winnerShare":0.3985,"turnout":0.7356,"valid":778}},{"type":"Feature","geometry":{"type":"Point","coordinates":[35.12573,31.65512]},"properties":{"semel":3604,"name":"אלון שבות","winner":"rz","winnerShare":0.4768,"turnout":0.7375,"valid":1682}},{"type":"Feature","geometry":{"type":"Point","coordinates":[35.49239,32.11332]},"properties":{"semel":3605,"name":"משואה","winner":"rz","winnerShare":0.3846,"turnout":0.7453,"valid":156}},{"type":"Feature","geometry":{"type":"Point","coordinates":[35.4485,31.99945]},"properties":{"semel":3606,"name":"גלגל","winner":"likud","winnerShare":0.2979,"turnout":0.5949,"valid":94}},{"type":"Feature","geometry":{"type":"Point","coordinates":[35.42206,31.94865]},"properties":{"semel":3607,"name":"ייטב","winner":"rz","winnerShare":0.6703,"turnout":0.6889,"valid":182}},{"type":"Feature","geometry":{"type":"Point","coordinates":[35.40382,32.07118]},"properties":{"semel":3608,"name":"מעלה אפרים","winner":"rz","winnerShare":0.3828,"turnout":0.5422,"valid":627}},{"type":"Feature","geometry":{"type":"Point","coordinates":[35.43569,32.19884]},"properties":{"semel":3609,"name":"חמרה","winner":"rz","winnerShare":0.3301,"turnout":0.7027,"valid":103}},{"type":"Feature","geometry":{"type":"Point","coordinates":[35.40112,31.56744]},"properties":{"semel":3610,"name":"מצפה שלם","winner":"yesh_atid","winnerShare":0.1789,"turnout":0.7208,"valid":190}},{"type":"Feature","geometry":{"type":"Point","coordinates":[35.11808,31.53541]},"properties":{"semel":3611,"name":"קרית ארבע","winner":"rz","winnerShare":0.6744,"turnout":0.6628,"valid":3249}},{"type":"Feature","geometry":{"type":"Point","coordinates":[35.45475,32.24308]},"properties":{"semel":3612,"name":"בקעות","winner":"likud","winnerShare":0.3558,"turnout":0.7172,"valid":104}},{"type":"Feature","geometry":{"type":"Point","coordinates":[35.3943,32.1028]},"properties":{"semel":3613,"name":"גיתית","winner":"rz","winnerShare":0.5288,"turnout":0.7549,"valid":191}},{"type":"Feature","geometry":{"type":"Point","coordinates":[35.42216,32.16059]},"properties":{"semel":3614,"name":"מכורה","winner":"likud","winnerShare":0.2421,"turnout":0.6643,"valid":95}},{"type":"Feature","geometry":{"type":"Point","coordinates":[35.44917,32.04408]},"properties":{"semel":3615,"name":"פצאל","winner":"likud","winnerShare":0.3493,"turnout":0.777,"valid":209}},{"type":"Feature","geometry":{"type":"Point","coordinates":[35.30571,31.77954]},"properties":{"semel":3616,"name":"מעלה אדומים","winner":"likud","winnerShare":0.4272,"turnout":0.7004,"valid":19602}},{"type":"Feature","geometry":{"type":"Point","coordinates":[35.26612,31.95208]},"properties":{"semel":3617,"name":"עופרה","winner":"rz","winnerShare":0.6901,"turnout":0.7311,"valid":1478}},{"type":"Feature","geometry":{"type":"Point","coordinates":[35.141,31.66151]},"properties":{"semel":3618,"name":"אלעזר","winner":"rz","winnerShare":0.5362,"turnout":0.7358,"valid":1201}},{"type":"Feature","geometry":{"type":"Point","coordinates":[35.48314,32.24829]},"properties":{"semel":3619,"name":"רועי","winner":"likud","winnerShare":0.2907,"turnout":0.6667,"valid":86}},{"type":"Feature","geometry":{"type":"Point","coordinates":[35.34443,31.81834]},"properties":{"semel":3638,"name":"כפר אדומים","winner":"likud","winnerShare":0.2941,"turnout":0.7162,"valid":1989}},{"type":"Feature","geometry":{"type":"Point","coordinates":[35.43347,31.82686]},"properties":{"semel":3639,"name":"ורד יריחו","winner":"likud","winnerShare":0.3769,"turnout":0.7453,"valid":199}},{"type":"Feature","geometry":{"type":"Point","coordinates":[35.09225,32.17053]},"properties":{"semel":3640,"name":"קרני שומרון","winner":"rz","winnerShare":0.5444,"turnout":0.7355,"valid":4732}},{"type":"Feature","geometry":{"type":"Point","coordinates":[35.30049,32.05219]},"properties":{"semel":3641,"name":"שילה","winner":"rz","winnerShare":0.8202,"turnout":0.7844,"valid":1769}},{"type":"Feature","geometry":{"type":"Point","coordinates":[35.16851,32.48116]},"properties":{"semel":3643,"name":"חיננית","winner":"rz","winnerShare":0.5484,"turnout":0.7594,"valid":682}},{"type":"Feature","geometry":{"type":"Point","coordinates":[35.15838,31.8481]},"properties":{"semel":3644,"name":"גבעון החדשה","winner":"likud","winnerShare":0.3437,"turnout":0.6785,"valid":646}},{"type":"Feature","geometry":{"type":"Point","coordinates":[35.49951,31.80642]},"properties":{"semel":3645,"name":"בית הערבה","winner":"likud","winnerShare":0.2277,"turnout":0.8577,"valid":202}},{"type":"Feature","geometry":{"type":"Point","coordinates":[35.52795,32.25271]},"properties":{"semel":3646,"name":"חמדת","winner":"rz","winnerShare":0.6033,"turnout":0.7378,"valid":121}},{"type":"Feature","geometry":{"type":"Point","coordinates":[35.11467,32.14972]},"properties":{"semel":3647,"name":"יקיר","winner":"rz","winnerShare":0.6311,"turnout":0.7964,"valid":1098}},{"type":"Feature","geometry":{"type":"Point","coordinates":[35.03135,31.92924]},"properties":{"semel":3648,"name":"מתתיהו","winner":"utj","winnerShare":0.7326,"turnout":0.7255,"valid":374}},{"type":"Feature","geometry":{"type":"Point","coordinates":[35.16865,32.47397]},"properties":{"semel":3649,"name":"שקד","winner":"likud","winnerShare":0.3388,"turnout":0.73,"valid":490}},{"type":"Feature","geometry":{"type":"Point","coordinates":[35.15592,31.66251]},"properties":{"semel":3650,"name":"אפרת","winner":"rz","winnerShare":0.4805,"turnout":0.7298,"valid":5783}},{"type":"Feature","geometry":{"type":"Point","coordinates":[35.30601,31.87927]},"properties":{"semel":3651,"name":"מעלה מכמש","winner":"rz","winnerShare":0.6495,"turnout":0.777,"valid":833}},{"type":"Feature","geometry":{"type":"Point","coordinates":[35.04979,32.03298]},"properties":{"semel":3652,"name":"בית אריה","winner":"likud","winnerShare":0.4125,"turnout":0.7089,"valid":2754}},{"type":"Feature","geometry":{"type":"Point","coordinates":[35.22976,31.59608]},"properties":{"semel":3653,"name":"מעלה עמוס","winner":"utj","winnerShare":0.4846,"turnout":0.7564,"valid":324}},{"type":"Feature","geometry":{"type":"Point","coordinates":[35.10895,32.1058]},"properties":{"semel":3654,"name":"ברקן","winner":"likud","winnerShare":0.4663,"turnout":0.7002,"valid":1053}},{"type":"Feature","geometry":{"type":"Point","coordinates":[35.04651,31.96353]},"properties":{"semel":3655,"name":"נילי","winner":"likud","winnerShare":0.3396,"turnout":0.7357,"valid":960}},{"type":"Feature","geometry":{"type":"Point","coordinates":[35.18459,31.43226]},"properties":{"semel":3656,"name":"כרמל","winner":"rz","winnerShare":0.8605,"turnout":0.7465,"valid":215}},{"type":"Feature","geometry":{"type":"Point","coordinates":[35.16432,31.41356]},"properties":{"semel":3657,"name":"מעון","winner":"rz","winnerShare":0.8991,"turnout":0.7475,"valid":228}},{"type":"Feature","geometry":{"type":"Point","coordinates":[35.17617,32.00236]},"properties":{"semel":3658,"name":"עטרת","winner":"rz","winnerShare":0.8182,"turnout":0.8073,"valid":264}},{"type":"Feature","geometry":{"type":"Point","coordinates":[35.22468,31.89893]},"properties":{"semel":3659,"name":"פסגות","winner":"rz","winnerShare":0.7969,"turnout":0.7965,"valid":901}},{"type":"Feature","geometry":{"type":"Point","coordinates":[35.13685,32.16157]},"properties":{"semel":3660,"name":"עמנואל","winner":"shas","winnerShare":0.4156,"turnout":0.7581,"valid":1932}},{"type":"Feature","geometry":{"type":"Point","coordinates":[35.03655,31.84755]},"properties":{"semel":3709,"name":"מבוא חורון","winner":"rz","winnerShare":0.7757,"turnout":0.8541,"valid":1079}},{"type":"Feature","geometry":{"type":"Point","coordinates":[35.26548,32.1925]},"properties":{"semel":3710,"name":"ברכה","winner":"likud","winnerShare":0.5058,"turnout":0.8523,"valid":1129}},{"type":"Feature","geometry":{"type":"Point","coordinates":[35.12639,32.28444]},"properties":{"semel":3712,"name":"ענב","winner":"rz","winnerShare":0.6318,"turnout":0.8196,"valid":459}},{"type":"Feature","geometry":{"type":"Point","coordinates":[35.46719,31.9067]},"properties":{"semel":3713,"name":"נעמה","winner":"likud","winnerShare":0.3182,"turnout":0.6433,"valid":110}},{"type":"Feature","geometry":{"type":"Point","coordinates":[35.29528,31.83053]},"properties":{"semel":3715,"name":"עלמון","winner":"likud","winnerShare":0.4812,"turnout":0.7512,"valid":771}},{"type":"Feature","geometry":{"type":"Point","coordinates":[35.11906,32.42338]},"properties":{"semel":3717,"name":"חרמש","winner":"likud","winnerShare":0.4265,"turnout":0.6479,"valid":136}},{"type":"Feature","geometry":{"type":"Point","coordinates":[35.03095,31.56441]},"properties":{"semel":3719,"name":"תלם","winner":"rz","winnerShare":0.7556,"turnout":0.787,"valid":180}},{"type":"Feature","geometry":{"type":"Point","coordinates":[34.90497,31.39108]},"properties":{"semel":3722,"name":"אשכולות","winner":"likud","winnerShare":0.331,"turnout":0.7594,"valid":284}},{"type":"Feature","geometry":{"type":"Point","coordinates":[35.16539,31.48621]},"properties":{"semel":3723,"name":"פני חבר","winner":"rz","winnerShare":0.8436,"turnout":0.7903,"valid":211}},{"type":"Feature","geometry":{"type":"Point","coordinates":[34.98311,31.49304]},"properties":{"semel":3724,"name":"נגוהות","winner":"rz","winnerShare":0.8564,"turnout":0.8478,"valid":195}},{"type":"Feature","geometry":{"type":"Point","coordinates":[35.14362,31.67684]},"properties":{"semel":3725,"name":"נווה דניאל","winner":"rz","winnerShare":0.5026,"turnout":0.7057,"valid":1154}},{"type":"Feature","geometry":{"type":"Point","coordinates":[35.2436,31.64561]},"properties":{"semel":3726,"name":"נוקדים","winner":"rz","winnerShare":0.4883,"turnout":0.7187,"valid":1022}},{"type":"Feature","geometry":{"type":"Point","coordinates":[35.06578,32.07089]},"properties":{"semel":3727,"name":"עלי זהב","winner":"rz","winnerShare":0.5713,"turnout":0.8356,"valid":1717}},{"type":"Feature","geometry":{"type":"Point","coordinates":[35.16802,31.85715]},"properties":{"semel":3730,"name":"גבעת זאב","winner":"shas","winnerShare":0.2545,"turnout":0.7693,"valid":9663}},{"type":"Feature","geometry":{"type":"Point","coordinates":[34.9563,31.37432]},"properties":{"semel":3743,"name":"טנא","winner":"rz","winnerShare":0.4663,"turnout":0.7708,"valid":416}},{"type":"Feature","geometry":{"type":"Point","coordinates":[35.08651,32.08083]},"properties":{"semel":3744,"name":"ברוכין","winner":"rz","winnerShare":0.8187,"turnout":0.8337,"valid":772}},{"type":"Feature","geometry":{"type":"Point","coordinates":[35.11289,31.3647]},"properties":{"semel":3745,"name":"מצדות יהודה","winner":"rz","winnerShare":0.7922,"turnout":0.7568,"valid":361}},{"type":"Feature","geometry":{"type":"Point","coordinates":[35.1124,32.11675]},"properties":{"semel":3746,"name":"קרית נטפים","winner":"rz","winnerShare":0.6778,"turnout":0.8207,"valid":388}},{"type":"Feature","geometry":{"type":"Point","coordinates":[35.13294,31.92663]},"properties":{"semel":3747,"name":"דולב","winner":"rz","winnerShare":0.7514,"turnout":0.7688,"valid":692}},{"type":"Feature","geometry":{"type":"Point","coordinates":[35.0296,31.43942]},"properties":{"semel":3748,"name":"עתניאל","winner":"rz","winnerShare":0.711,"turnout":0.6906,"valid":346}},{"type":"Feature","geometry":{"type":"Point","coordinates":[35.23672,32.16867]},"properties":{"semel":3749,"name":"יצהר","winner":"rz","winnerShare":0.8605,"turnout":0.7771,"valid":645}},{"type":"Feature","geometry":{"type":"Point","coordinates":[35.01303,32.17368]},"properties":{"semel":3750,"name":"אלפי מנשה","winner":"likud","winnerShare":0.3085,"turnout":0.7351,"valid":4402}},{"type":"Feature","geometry":{"type":"Point","coordinates":[35.34223,32.09004]},"properties":{"semel":3751,"name":"מגדלים","winner":"rz","winnerShare":0.6504,"turnout":0.7609,"valid":226}},{"type":"Feature","geometry":{"type":"Point","coordinates":[35.24044,32.05483]},"properties":{"semel":3752,"name":"מעלה לבונה","winner":"rz","winnerShare":0.8575,"turnout":0.7614,"valid":351}},{"type":"Feature","geometry":{"type":"Point","coordinates":[35.18756,31.58545]},"properties":{"semel":3754,"name":"אספר","winner":"utj","winnerShare":0.4114,"turnout":0.757,"valid":350}},{"type":"Feature","geometry":{"type":"Point","coordinates":[35.11422,31.39203]},"properties":{"semel":3756,"name":"סוסיה","winner":"rz","winnerShare":0.8037,"turnout":0.7641,"valid":596}},{"type":"Feature","geometry":{"type":"Point","coordinates":[35.01797,31.55295]},"properties":{"semel":3759,"name":"אדורה","winner":"rz","winnerShare":0.5266,"turnout":0.7879,"valid":207}},{"type":"Feature","geometry":{"type":"Point","coordinates":[34.99268,32.13108]},"properties":{"semel":3760,"name":"אורנית","winner":"yesh_atid","winnerShare":0.2913,"turnout":0.7533,"valid":5064}},{"type":"Feature","geometry":{"type":"Point","coordinates":[35.3076,32.17418]},"properties":{"semel":3762,"name":"איתמר","winner":"rz","winnerShare":0.872,"turnout":0.7278,"valid":492}},{"type":"Feature","geometry":{"type":"Point","coordinates":[35.27339,31.8494]},"properties":{"semel":3763,"name":"גבע בנימין","winner":"rz","winnerShare":0.3353,"turnout":0.7294,"valid":2556}},{"type":"Feature","geometry":{"type":"Point","coordinates":[35.07985,31.49342]},"properties":{"semel":3764,"name":"חגי","winner":"rz","winnerShare":0.8429,"turnout":0.7292,"valid":280}},{"type":"Feature","geometry":{"type":"Point","coordinates":[35.26677,32.07273]},"properties":{"semel":3765,"name":"עלי","winner":"rz","winnerShare":0.7533,"turnout":0.7291,"valid":1686}},{"type":"Feature","geometry":{"type":"Point","coordinates":[35.10037,31.60875]},"properties":{"semel":3766,"name":"כרמי צור","winner":"rz","winnerShare":0.8014,"turnout":0.7423,"valid":428}},{"type":"Feature","geometry":{"type":"Point","coordinates":[35.13969,31.97426]},"properties":{"semel":3767,"name":"נחליאל","winner":"rz","winnerShare":0.553,"turnout":0.7688,"valid":264}},{"type":"Feature","geometry":{"type":"Point","coordinates":[35.05215,32.06153]},"properties":{"semel":3768,"name":"פדואל","winner":"rz","winnerShare":0.7813,"turnout":0.8289,"valid":974}},{"type":"Feature","geometry":{"type":"Point","coordinates":[35.12911,31.82655]},"properties":{"semel":3769,"name":"הר אדר","winner":"yesh_atid","winnerShare":0.3329,"turnout":0.7432,"valid":2355}},{"type":"Feature","geometry":{"type":"Point","coordinates":[35.02372,31.93138]},"properties":{"semel":3770,"name":"חשמונאים","winner":"rz","winnerShare":0.4451,"turnout":0.7335,"valid":1640}},{"type":"Feature","geometry":{"type":"Point","coordinates":[34.90303,31.3632]},"properties":{"semel":3777,"name":"סנסנה","winner":"rz","winnerShare":0.5137,"turnout":0.7584,"valid":292}},{"type":"Feature","geometry":{"type":"Point","coordinates":[35.24202,31.88037]},"properties":{"semel":3779,"name":"כוכב יעקב","winner":"shas","winnerShare":0.3989,"turnout":0.8072,"valid":4016}},{"type":"Feature","geometry":{"type":"Point","coordinates":[35.11438,31.69641]},"properties":{"semel":3780,"name":"ביתר עילית","winner":"utj","winnerShare":0.5944,"turnout":0.8134,"valid":23688}},{"type":"Feature","geometry":{"type":"Point","coordinates":[35.31113,31.75424]},"properties":{"semel":3781,"name":"קדר","winner":"likud","winnerShare":0.494,"turnout":0.6965,"valid":753}},{"type":"Feature","geometry":{"type":"Point","coordinates":[35.50309,32.31623]},"properties":{"semel":3782,"name":"רותם","winner":"rz","winnerShare":0.3625,"turnout":0.7009,"valid":80}},{"type":"Feature","geometry":{"type":"Point","coordinates":[35.01255,31.38789]},"properties":{"semel":3784,"name":"שמעה","winner":"rz","winnerShare":0.5881,"turnout":0.7629,"valid":369}},{"type":"Feature","geometry":{"type":"Point","coordinates":[35.49445,32.29635]},"properties":{"semel":3785,"name":"משכיות","winner":"rz","winnerShare":0.9091,"turnout":0.8462,"valid":88}},{"type":"Feature","geometry":{"type":"Point","coordinates":[35.06424,31.96288]},"properties":{"semel":3787,"name":"נעלה","winner":"likud","winnerShare":0.3739,"turnout":0.7471,"valid":1217}},{"type":"Feature","geometry":{"type":"Point","coordinates":[35.13842,31.93728]},"properties":{"semel":3788,"name":"טלמון","winner":"rz","winnerShare":0.8486,"turnout":0.8056,"valid":2113}},{"type":"Feature","geometry":{"type":"Point","coordinates":[35.10173,32.15352]},"properties":{"semel":3790,"name":"נופים","winner":"likud","winnerShare":0.4209,"turnout":0.7374,"valid":468}},{"type":"Feature","geometry":{"type":"Point","coordinates":[35.00981,32.198]},"properties":{"semel":3791,"name":"צופים","winner":"rz","winnerShare":0.3741,"turnout":0.7662,"valid":1203}},{"type":"Feature","geometry":{"type":"Point","coordinates":[35.07357,32.28547]},"properties":{"semel":3793,"name":"אבני חפץ","winner":"rz","winnerShare":0.6944,"turnout":0.7725,"valid":1044}},{"type":"Feature","geometry":{"type":"Point","coordinates":[35.10042,31.65849]},"properties":{"semel":3794,"name":"בת עין","winner":"rz","winnerShare":0.7323,"turnout":0.625,"valid":594}},{"type":"Feature","geometry":{"type":"Point","coordinates":[35.12838,32.11859]},"properties":{"semel":3795,"name":"רבבה","winner":"rz","winnerShare":0.8603,"turnout":0.8216,"valid":1195}},{"type":"Feature","geometry":{"type":"Point","coordinates":[35.0377,31.91942]},"properties":{"semel":3796,"name":"כפר האורנים","winner":"yesh_atid","winnerShare":0.4302,"turnout":0.731,"valid":1290}},{"type":"Feature","geometry":{"type":"Point","coordinates":[35.03667,31.93154]},"properties":{"semel":3797,"name":"מודיעין עילית","winner":"utj","winnerShare":0.7752,"turnout":0.8203,"valid":26655}},{"type":"Feature","geometry":{"type":"Point","coordinates":[35.25712,32.10217]},"properties":{"semel":3822,"name":"רחלים","winner":"rz","winnerShare":0.854,"turnout":0.8602,"valid":363}}]}